NORAD_CAT_ID,OBJECT_NAME,OBJECT_TYPE,EPOCH,MEAN_MOTION,ECCENTRICITY,INCLINATION,RA_OF_ASC_NODE,ARG_OF_PERICENTER,MEAN_ANOMALY,BSTAR,MEAN_MOTION_DOT,MEAN_MOTION_DDOT,TLE_LINE0,TLE_LINE1,TLE_LINE2,SEMIMAJOR_AXIS,PERIOD,APOGEE,PERIGEE,DECAYED
51126.0,STARLINK-3386,PAYLOAD,2023-09-20 13:28:59,15.08817984,0.0001216,53.2181,24.4522,128.1013,232.0089,0.0011563,0.00018151,0.0,0 STARLINK-3386,1 51126U 22005Y   23263.56179410  .00018151  00000-0  11563-2 0  9997,2 51126  53.2181  24.4522 0001216 128.1013 232.0089 15.08817984 92705,6917.948,95.439,540.654,538.971,0.0
51126.0,STARLINK-3386,PAYLOAD,2023-09-20 19:50:32,15.08819576,0.0001041,53.218,23.2635,109.112,250.9985,0.0012464,0.00019593,0.0,0 STARLINK-3386,1 51126U 22005Y   23263.82676023  .00019593  00000-0  12464-2 0  9990,2 51126  53.2180  23.2635 0001041 109.1120 250.9985 15.08819576 92747,6917.943,95.439,540.528,539.088,0.0
51126.0,STARLINK-3386,PAYLOAD,2023-09-21 13:19:46,15.08858343,0.0001021,53.2182,19.9926,106.1522,253.9583,0.0014524,0.00022914,0.0,0 STARLINK-3386,1 51126U 22005Y   23264.55539870  .00022914  00000-0  14524-2 0  9999,2 51126  53.2182  19.9926 0001021 106.1522 253.9583 15.08858343 92859,6917.824,95.436,540.396,538.983,0.0
51126.0,STARLINK-3386,PAYLOAD,2023-09-21 14:55:09,15.08862484,0.0001011,53.2182,19.6954,105.6463,254.4641,0.0015073,0.00023797,0.0,0 STARLINK-3386,1 51126U 22005Y   23264.62163762  .00023797  00000-0  15073-2 0  9990,2 51126  53.2182  19.6954 0001011 105.6463 254.4641 15.08862484 93970,6917.812,95.436,540.376,538.977,0.0
51126.0,STARLINK-3386,PAYLOAD,2023-09-22 00:27:28,15.08861382,0.0001428,53.2183,17.9107,93.1066,267.0089,0.0009146,0.00014306,0.0,0 STARLINK-3386,1 51126U 22005Y   23265.01907596  .00014306  00000-0  91460-3 0  9996,2 51126  53.2183  17.9107 0001428  93.1066 267.0089 15.08861382 94034,6917.815,95.436,540.668,538.692,0.0
51126.0,STARLINK-3386,PAYLOAD,2023-09-22 13:10:32,15.08856961,9.86e-05,53.2178,15.5336,98.4812,261.6292,0.0011124,0.00017468,0.0,0 STARLINK-3386,1 51126U 22005Y   23265.54899205  .00017468  00000-0  11124-2 0  9991,2 51126  53.2178  15.5336 0000986  98.4812 261.6292 15.08856961 93000,6917.829,95.436,540.376,539.011,0.0
51126.0,STARLINK-3386,PAYLOAD,2023-09-22 16:21:19,15.08860275,0.0001369,53.2193,14.9403,102.2408,257.8737,0.00054228,8.358e-05,0.0,0 STARLINK-3386,1 51126U 22005Y   23265.68147010  .00008358  00000-0  54228-3 0  9997,2 51126  53.2193  14.9403 0001369 102.2408 257.8737 15.08860275 94135,6917.818,95.436,540.63,538.736,0.0
51126.0,STARLINK-3386,PAYLOAD,2023-09-22 17:56:41,15.08871573,0.0001014,53.2177,14.6398,87.6385,272.4723,0.0010696,0.0001679,0.0,0 STARLINK-3386,1 51126U 22005Y   23265.74770750  .00016790  00000-0  10696-2 0  9996,2 51126  53.2177  14.6398 0001014  87.6385 272.4723 15.08871573 93033,6917.784,95.436,540.35,538.947,0.0
51126.0,STARLINK-3386,PAYLOAD,2023-09-23 00:18:14,15.0885477,6.75e-05,53.2175,13.4503,112.5075,247.5988,0.00083174,0.00012979,0.0,0 STARLINK-3386,1 51126U 22005Y   23266.01266942  .00012979  00000-0  83174-3 0  9997,2 51126  53.2175  13.4503 0000675 112.5075 247.5988 15.08854770 94185,6917.835,95.437,540.167,539.233,0.0
51126.0,STARLINK-3386,PAYLOAD,2023-09-23 13:01:19,15.08854475,0.000101,53.2176,11.071,102.5845,257.526,0.0005798,8.955e-05,0.0,0 STARLINK-3386,1 51126U 22005Y   23266.54258871  .00008955  00000-0  57980-3 0  9992,2 51126  53.2176  11.0710 0001010 102.5845 257.5260 15.08854475 94263,6917.836,95.437,540.4,539.002,0.0
51126.0,STARLINK-3386,PAYLOAD,2023-09-24 12:52:06,15.08855716,0.0001071,53.2167,6.6098,98.3031,261.8083,0.0013557,0.00021363,0.0,0 STARLINK-3386,1 51126U 22005Y   23267.53619012  .00021363  00000-0  13557-2 0  9999,2 51126  53.2167   6.6098 0001071  98.3031 261.8083 15.08855716 93302,6917.832,95.437,540.438,538.956,0.0
51126.0,STARLINK-3386,PAYLOAD,2023-09-24 16:02:52,15.08861733,0.0001035,53.2166,6.017,90.7889,269.3222,0.0016117,0.00025471,0.0,0 STARLINK-3386,1 51126U 22005Y   23267.66866888  .00025471  00000-0  16117-2 0  9997,2 51126  53.2166   6.0170 0001035  90.7889 269.3222 15.08861733 94432,6917.814,95.436,540.395,538.963,0.0
51126.0,STARLINK-3386,PAYLOAD,2023-09-24 19:13:38,15.08871252,9.9e-05,53.2165,5.4214,91.6013,268.5093,0.001671,0.00026429,0.0,0 STARLINK-3386,1 51126U 22005Y   23267.80114562  .00026429  00000-0  16710-2 0  9991,2 51126  53.2165   5.4214 0000990  91.6013 268.5093 15.08871252 93344,6917.785,95.436,540.335,538.965,0.0
51126.0,STARLINK-3386,PAYLOAD,2023-09-25 12:42:53,15.08862628,0.0001269,53.2173,2.1499,101.008,259.1055,0.0022337,0.00035463,0.0,0 STARLINK-3386,1 51126U 22005Y   23268.52978923  .00035463  00000-0  22337-2 0  9990,2 51126  53.2173   2.1499 0001269 101.0080 259.1055 15.08862628 93455,6917.811,95.436,540.554,538.798,0.0
51126.0,STARLINK-3386,PAYLOAD,2023-09-25 17:29:02,15.08876859,0.0001242,53.2171,1.2575,101.0997,259.0135,0.0027175,0.0004327,0.0,0 STARLINK-3386,1 51126U 22005Y   23268.72850573  .00043270  00000-0  27175-2 0  9992,2 51126  53.2171   1.2575 0001242 101.0997 259.0135 15.08876859 94591,6917.768,95.435,540.492,538.774,0.0
51126.0,STARLINK-3386,PAYLOAD,2023-09-26 09:22:54,15.08854148,0.0001507,53.2179,358.2842,99.4649,260.6514,0.0017703,0.0002801,0.0,0 STARLINK-3386,1 51126U 22005Y   23269.39090746  .00028010  00000-0  17703-2 0  9995,2 51126  53.2179 358.2842 0001507  99.4649 260.6514 15.08854148 94696,6917.837,95.437,540.745,538.66,0.0
51126.0,STARLINK-3386,PAYLOAD,2023-09-26 12:33:40,15.08836354,0.0001158,53.2177,357.6898,83.2642,276.8481,0.00050056,7.687e-05,0.0,0 STARLINK-3386,1 51126U 22005Y   23269.52338941  .00007687  00000-0  50056-3 0  9998,2 51126  53.2177 357.6898 0001158  83.2642 276.8481 15.08836354 93605,6917.892,95.438,540.558,538.955,0.0
51126.0,STARLINK-3386,PAYLOAD,2023-09-27 09:13:42,15.08842456,0.0001443,53.218,353.8237,62.2217,297.8921,0.0013501,0.00021266,0.0,0 STARLINK-3386,1 51126U 22005Y   23270.38451815  .00021266  00000-0  13501-2 0  9992,2 51126  53.2180 353.8237 0001443  62.2217 297.8921 15.08842456 94845,6917.873,95.437,540.736,538.74,0.0
51126.0,STARLINK-3386,PAYLOAD,2023-09-27 12:24:28,15.08847652,0.0001464,53.2181,353.2301,66.2044,293.9102,0.001326,0.00020883,0.0,0 STARLINK-3386,1 51126U 22005Y   23270.51699744  .00020883  00000-0  13260-2 0  9998,2 51126  53.2181 353.2301 0001464  66.2044 293.9102 15.08847652 93757,6917.857,95.437,540.735,538.709,0.0
51126.0,STARLINK-3386,PAYLOAD,2023-09-28 12:15:16,15.088345,0.000138,53.2186,348.7741,68.6415,291.4724,0.0010452,0.00016383,0.0,0 STARLINK-3386,1 51126U 22005Y   23271.51060402  .00016383  00000-0  10452-2 0  9992,2 51126  53.2186 348.7741 0001380  68.6415 291.4724 15.08834500 95016,6917.897,95.438,540.717,538.808,0.0
51126.0,STARLINK-3386,PAYLOAD,2023-09-29 12:06:03,15.0884735,0.0001538,53.2182,344.313,76.0581,284.0582,0.00033012,4.971e-05,0.0,0 STARLINK-3386,1 51126U 22005Y   23272.50420148  .00004971  00000-0  33012-3 0  9997,2 51126  53.2182 344.3130 0001538  76.0581 284.0582 15.08847350 95161,6917.858,95.437,540.787,538.659,0.0
51126.0,STARLINK-3386,PAYLOAD,2023-09-29 15:16:48,15.08855743,0.0001482,53.2181,343.7175,81.0713,279.0446,0.00050333,7.735e-05,0.0,0 STARLINK-3386,1 51126U 22005Y   23272.63667814  .00007735  00000-0  50333-3 0  9990,2 51126  53.2181 343.7175 0001482  81.0713 279.0446 15.08855743 95183,6917.832,95.437,540.722,538.672,0.0
51126.0,STARLINK-3386,PAYLOAD,2023-09-30 10:21:26,15.08847697,0.0001929,53.2181,340.1494,73.2939,286.8264,0.00016716,2.374e-05,0.0,0 STARLINK-3386,1 51126U 22005Y   23273.43155763  .00002374  00000-0  16716-3 0  9995,2 51126  53.2181 340.1494 0001929  73.2939 286.8264 15.08847697 95304,6917.857,95.437,541.056,538.387,0.0
51126.0,STARLINK-3386,PAYLOAD,2023-09-30 13:32:12,15.08858997,0.000181,53.2183,339.5539,78.7385,281.381,0.00036438,5.519e-05,0.0,0 STARLINK-3386,1 51126U 22005Y   23273.56403205  .00005519  00000-0  36438-3 0  9993,2 51126  53.2183 339.5539 0001810  78.7385 281.3810 15.08858997 95326,6917.822,95.436,540.939,538.435,0.0
51126.0,STARLINK-3386,PAYLOAD,2023-09-30 21:29:08,15.08844009,0.0001957,53.2175,338.0656,91.0487,269.0729,3.1707e-05,2.17e-06,0.0,0 STARLINK-3386,1 51126U 22005Y   23273.89523538  .00000217  00000-0  31707-4 0  9996,2 51126  53.2175 338.0656 0001957  91.0487 269.0729 15.08844009 95370,6917.868,95.437,541.087,538.379,0.0
51126.0,STARLINK-3386,PAYLOAD,2023-10-01 11:47:36,15.08845982,0.0001769,53.2174,335.3889,93.9138,266.2056,3.2263e-05,2.25e-06,0.0,0 STARLINK-3386,1 51126U 22005Y   23274.49139278  .00000225  00000-0  32263-4 0  9994,2 51126  53.2174 335.3889 0001769  93.9138 266.2056 15.08845982 94352,6917.862,95.437,540.951,538.503,0.0
51126.0,STARLINK-3386,PAYLOAD,2023-10-01 21:19:55,15.08838147,0.0001554,53.2174,333.6035,84.6038,275.5131,-8.9557e-05,-1.713e-05,0.0,0 STARLINK-3386,1 51126U 22005Y   23274.88883472 -.00001713  00000-0 -89557-4 0  9992,2 51126  53.2174 333.6035 0001554  84.6038 275.5131 15.08838147 94413,6917.886,95.438,540.826,538.676,0.0
51126.0,STARLINK-3386,PAYLOAD,2023-10-02 16:24:33,15.08840722,0.0001367,53.2153,330.0354,96.1247,263.9901,-2.7364e-05,-7.23e-06,0.0,0 STARLINK-3386,1 51126U 22005Y   23275.68371831 -.00000723  00000-0 -27364-4 0  9990,2 51126  53.2153 330.0354 0001367  96.1247 263.9901 15.08840722 94538,6917.878,95.438,540.689,538.798,0.0
51126.0,STARLINK-3386,PAYLOAD,2023-10-03 09:53:48,15.08843187,0.000149,53.2149,326.7647,88.1114,272.0049,0.0002437,3.593e-05,0.0,0 STARLINK-3386,1 51126U 22005Y   23276.41236208  .00003593  00000-0  24370-3 0  9999,2 51126  53.2149 326.7647 0001490  88.1114 272.0049 15.08843187 95758,6917.871,95.437,540.766,538.705,0.0
51126.0,STARLINK-3386,PAYLOAD,2023-10-03 14:39:57,15.08853997,0.0001496,53.2151,325.872,94.5885,265.5278,0.00048937,7.512e-05,0.0,0 STARLINK-3386,1 51126U 22005Y   23276.61107830  .00007512  00000-0  48937-3 0  9999,2 51126  53.2151 325.8720 0001496  94.5885 265.5278 15.08853997 95789,6917.838,95.437,540.738,538.668,0.0
